CORAL                   
1 67684U 98067YA  26094.83018255  .00093721  00000+0  11615-2 0  9991
2 67684  51.6290 300.7162 0013624 272.7085  87.2349 15.59172561  8869
GXIBA-1                 
1 67685U 98067YB  26094.77752868  .00056407  00000+0  83058-3 0  9991
2 67685  51.6301 301.8662 0012502 279.3255  80.6322 15.54782829  8841
UITMSAT-2               
1 67686U 98067YC  26094.82248669  .00057681  00000+0  81491-3 0  9991
2 67686  51.6303 301.4182 0009548 253.7696 106.2245 15.55936506  8852
HMU-SAT2                
1 67687U 98067YD  26094.78362938  .00054021  00000+0  80536-3 0  9997
2 67687  51.6310 301.9093 0009085 256.2021 103.7959 15.54504888  8760
LEOPARD                 
1 67688U 98067YE  26094.83129328  .00053651  00000+0  77371-3 0  9999
2 67688  51.6311 301.4769 0009245 254.0354 105.9619 15.55413317  8775
CREW DRAGON 12          
1 67796U 26031A   26094.84355279  .00009370  00000+0  17936-3 0  9998
2 67796  51.6331 303.0545 0006326 272.5089  87.5175 15.48773610560350
PROGRESS-MS 33          
1 68319U 26058A   26094.84355279  .00009370  00000+0  17936-3 0  9999
2 68319  51.6331 303.0545 0006326 272.5089  87.5175 15.48773610  1868
